#cP2016  9 29  6  0  0.00000000     192 ORBIT IGb08 HLM  IGS
## 1916 367200.00000000   900.00000000 57660 0.2500000000000
+   30   G01G02G03G05G06G07G08G10G11G12G13G14G15G16G17G18G19
+        G20G21G22G23G24G25G26G27G28G29G30G31G32  0  0  0  0
+          0  0  0  0  0  0  0  0  0  0  0  0  0  0  0  0  0
+          0  0  0  0  0  0  0  0  0  0  0  0  0  0  0  0  0
+          0  0  0  0  0  0  0  0  0  0  0  0  0  0  0  0  0
++         3  4  4  4  3  4  3  4  3  4  3  4  3  4  4  3  4
++         3  4  3  4  3  4  4  4  4  4  4  4  4  0  0  0  0
++         0  0  0  0  0  0  0  0  0  0  0  0  0  0  0  0  0
++         0  0  0  0  0  0  0  0  0  0  0  0  0  0  0  0  0
++         0  0  0  0  0  0  0  0  0  0  0  0  0  0  0  0  0
%c G  cc GPS ccc cccc cccc cccc cccc ccccc ccccc ccccc ccccc
%c cc cc ccc ccc cccc cccc cccc cccc ccccc ccccc ccccc ccccc
%f  1.2500000  1.025000000  0.00000000000  0.000000000000000
%f  0.0000000  0.000000000  0.00000000000  0.000000000000000
%i    0    0    0    0      0      0      0      0         0
%i    0    0    0    0      0      0      0      0         0
/* ULTRA ORBIT COMBINATION 19165_06 (57661.250) FROM:       
/* cou emu esu gfu siu usu whu                              
/* REFERENCED TO emu CLOCK AND TO WEIGHTED MEAN POLE:       
/* PCV:IGS08_1915 OL/AL:FES2004  NONE     Y  ORB:CMB CLK:CMB
*  2016  9 30 14 15  0.00000000
PG01  16623.804799   3269.591543  20413.874100     35.698637  2 15 11 230  P   P
PG02 -14200.751724 -22047.914821  -4863.452562    546.137035 10 11 11 183  P   P
PG03  19942.203244  -8250.073708  15471.529381    -89.963292 11 17  8 178  P   P
PG05 -10928.755409 -11241.135691 -21502.717770    -87.617512 10 15 10 254  P   P
PG06  -6011.412988 -25154.962490   6057.123203    253.323337 10  9 12 163  P   P
PG07   9890.009494 -13492.080910 -20366.211189    423.221703 11 13  9 239  P   P
PG08  25898.527727   5191.698970  -2969.907529    -33.733350  8  5 12 259  P   P
PG10  -8408.584820  22972.886140  10257.564925   -103.323776 15  8 18 314  P   P
PG11  21441.307552   6073.679039  13874.370409   -665.628705  7 13 12 245  P   P
PG12 -19368.222886   5414.448945  17103.860244    389.000893  9 14 12 198  P   P
PG13 -20922.622635 -12574.134623 -10502.415384    -46.705722  9  8 10 189  P   P
PG14   9276.004299  15800.863778  19545.433564    -37.704603 15 12 13 234  P   P
PG15 -26405.338651  -3594.298840  -2546.581185   -329.190087  8 11  4 226  P   P
PG16   9531.009202  11176.900700 -22209.594102      8.904992 12 14 13 240  P   P
PG17   2023.318819 -14876.566092  22251.388604   -201.726815 14 11  7 247  P   P
PG18 -15460.073866  21417.645916   -350.507356    562.647924  9 10 13 213  P   P
PG19  -6227.692663 -15523.556817  20291.545921   -522.381874 13 10  4 255  P   P
PG20 -19380.840430   6727.860881 -17036.695401    438.374229  6 12  4 221  P   P
PG21  -7852.646691  16102.509901 -18792.381827   -532.436281 15 14 11 260  P   P
PG22  18582.959644  -1120.055703  19216.048013    231.352648  7 13  9 248  P   P
PG23  25965.846006  -1317.497760  -6250.807229   -191.737663 11  5 14 215  P   P
PG24 -17646.690138  -6197.701652  18877.734902    -23.914010  9 14 12 300  P   P
PG25 -19057.367847  16796.887491   7281.771380   -255.126074  4 11 14 101  P   P
PG26   1494.494575  19249.739620 -18212.621618   -478.900071 14 13 14 227  P   P
PG27  18982.089719  12137.335115 -14242.834440    145.848851 13  9 13 209  P   P
PG28  11545.669457 -22205.899001   9456.965283    555.857365 11  8 13 255  P   P
PG29 -21875.087611   5511.547442 -14002.291591    649.293278 12 10 13 249  P   P
PG30   3492.006951 -21890.583499 -14545.350651    152.406058 12 13 11 153  P   P
PG31   6778.385249  25202.750575   3777.772236    245.105735  6  9 15 235  P   P
PG32  -2059.493898  15119.044680  21753.790029   -135.407040 16 12 11 286  P   P
*  2016  9 30 14 30  0.00000000
PG01  17475.278579   5388.368088  19246.744903     35.699740  2 14 12 230  P   P
PG02 -14157.175553 -22569.481227  -2100.541625    546.132540  9 10 11 188  P   P
PG03  18989.029180  -6622.325316  17340.650240    -89.965128 11 17  3 182  P   P
PG05  -9501.934704 -13202.669399 -21041.352548    -87.615218 10 14 10 254  P   P
PG06  -5449.918207 -24481.774337   8750.429253    253.327914 10 10 12 160  P   P
PG07  10924.200837 -11304.506179 -21184.641272    423.219026 11 13  8 241  P   P
PG08  25375.005665   5384.169948  -5772.189074    -33.734528  9  6 12 265  P   P
PG10  -9196.821880  23671.033626   7653.088801   -103.327309 15    19 313  P   P
PG11  22329.472905   7409.776145  11747.303019   -665.629663  6 12 12 244  P   P
PG12 -18158.304544   3718.437843  18804.706291    389.001082  9 15 11 199  P   P
PG13 -19586.256038 -12487.821388 -12935.381129    -46.707714  9  9 10 194  P   P
PG14   7049.270535  15503.212050  20682.266443    -37.706366 15 12 12 233  P   P
PG15 -25966.099532  -3887.307130  -5272.693985   -329.191338  8 11  5 226  P   P
PG16   7910.729287  13068.899348 -21773.630147      8.906580 12 14 13 239  P   P
PG17   4457.628200 -14514.569214  22117.433727   -201.726249 14 11  9 246  P   P
PG18 -15630.335703  20993.662764  -3138.726213    562.651104  8 11 13 214  P   P
PG19  -3826.795462 -15146.548795  21170.468335   -522.381417 12 10  1 255  P   P
PG20 -18520.280565   4891.601554 -18562.957454    438.376021  5 12  4 222  P   P
PG21  -9035.330073  14038.973913 -19862.666819   -532.436564 15 14 10 262  P   P
PG22  17465.008895    805.384457  20255.697531    231.343400  6 13  9 246  P   P
PG23  26517.011455  -1005.681025  -3524.245719   -191.738884 10  7 14 215  P   P
PG24 -18426.352605  -8132.899808  17360.152448    -23.914558  9 14 13 301  P   P
PG25 -18638.312694  15860.841347   9950.299449   -255.132299  5 11 14 135  P   P
PG26    226.318259  20789.403136 -16495.515035   -478.906034 14 13 14 228  P   P
PG27  17243.249634  12127.976438 -16302.686549    145.853267 14 10 12 212  P   P
PG28  12206.743065 -22757.228525   6740.805327    555.859958 10  8 13 255  P   P
PG29 -23298.818467   5125.190940 -11653.248846    649.292109 12 11 14 249  P   P
PG30   4315.827368 -20295.034567 -16515.338183    152.407364 12 13 11 149  P   P
PG31   6320.272463  24757.038539   6589.917078    245.103784  3 11 15 237  P   P
PG32  -4522.807879  14879.440452  21543.252807   -135.420585 16 12 11 285  P   P
*  2016  9 30 14 45  0.00000000
PG01  18366.876999   7322.833515  17748.000972     35.700844  2 14 12 231  P   P
PG02 -13985.756727 -22820.486667    697.905915    546.128047  9  9 11 194  P   P
PG03  18018.070059  -4782.434166  18911.169611    -89.966961 12 18  4 185  P   P
PG05  -8211.377094 -15173.038824 -20219.381529    -87.612922 10 14 11 254  P   P
PG06  -4714.309758 -23577.453473  11293.190704    253.332493 11 10 11 157  P   P
PG07  12101.206571  -9112.114674 -21631.071075    423.216349 11 13  8 242  P   P
PG08  24550.630255   5595.750471  -8475.275912    -33.735706 10  8 12 270  P   P
PG10  -9787.979113  24152.056220   4916.343741   -103.330843 15  7 19 313  P   P
PG11  23079.278646   8538.586932   9411.899246   -665.630619  5 12 13 244  P   P
PG12 -16944.721865   1813.935113  20176.204125    389.001277 10 15 10 198  P   P
PG13 -17988.444972 -12433.560670 -15146.420750    -46.709702  9 10  9 198  P   P
PG14   4702.441562  15312.606137  21472.339843    -37.708128 15 12 12 232  P   P
PG15 -25242.337423  -4208.118952  -7910.268872   -329.192587  8 11  6 226  P   P
PG16   6439.813818  14996.078800 -20964.623559      8.908162 12 14 14 238  P   P
PG17   6875.044326 -14291.230832  21614.154972   -201.725682 14 12 10 245  P   P
PG18 -15665.543469  20303.496591  -5871.639280    562.654284  8 11 13 216  P   P
PG19  -1332.753285 -14887.996144  21674.687632   -522.380960 12 11  3 255  P   P
PG20 -17677.190761   2881.208497 -19773.856044    438.377812  5 13  4 223  P   P
PG21 -10363.425111  11941.489777 -20566.442067   -532.436846 15 14  9 263  P   P
PG22  16389.799995   2864.858997  20954.435987    231.334151  4 13  9 245  P   P
PG23  26774.216933   -734.377053   -738.407567   -191.740104  9  8 14 216  P   P
PG24 -19209.637268  -9860.727366  15544.833927    -23.915116  9 13 14 303  P   P
PG25 -18113.986669  14653.327655  12444.816933   -255.138514  3 12 13 142  P   P
PG26   -850.000416  22213.563959 -14493.883612   -478.911996 13 12 15 231  P   P
PG27  15289.020600  12206.634826 -18084.785751    145.857682 14 10 12 215  P   P
PG28  12654.682624 -23092.860481   3910.359481    555.862552 10  6 13 254  P   P
PG29 -24464.810546   4842.677455  -9103.418469    649.290938 11 11 14 249  P   P
PG30   5302.776174 -18554.506631 -18199.806634    152.408674 12 13 10 146  P   P
PG31   5702.734852  24053.477096   9286.418356    245.101827    12 15 240  P   P
PG32  -6950.737649  14769.265547  20962.438962   -135.434133 16 12 12 285  P   P
EOF
